CTC1_L_00176001-01
1 11947U 23220SW  26070.40833333  .00000000  00000+0  00000-0 0  9992
2 11947  70.0000   0.0000 0000000   0.0000   0.0000 13.89609395    15
CTC1_L_00176001-02
1 11948U 22201WR  26070.40833333  .00000000  00000+0  00000-0 0  9991
2 11948  70.0000   0.0000 0000000   0.0000  90.0000 13.89609395    15
CTC1_L_00176001-03
1 11949U 22630WH  26070.40833333  .00000000  00000+0  00000-0 0  9998
2 11949  70.0000   0.0000 0000000   0.0000 180.0000 13.89609395    16
CTC1_L_00176001-04
1 11950U 22752TS  26070.40833333  .00000000  00000+0  00000-0 0  9995
2 11950  70.0000   0.0000 0000000   0.0000 270.0000 13.89609395    18
CTC1_L_00176002-01
1 11951U 24972NV  26070.40833333  .00000000  00000+0  00000-0 0  9992
2 11951  70.0000  12.0000 0000000   0.0000  12.0000 13.89609395    16
CTC1_L_00176002-02
1 11952U 22275EH  26070.40833333  .00000000  00000+0  00000-0 0  9997
2 11952  70.0000  12.0000 0000000   0.0000 102.0000 13.89609395    17
CTC1_L_00176002-03
1 11953U 26948WM  26070.40833333  .00000000  00000+0  00000-0 0  9999
2 11953  70.0000  12.0000 0000000   0.0000 192.0000 13.89609395    17
CTC1_L_00176002-04
1 11954U 25059RI  26070.40833333  .00000000  00000+0  00000-0 0  9992
2 11954  70.0000  12.0000 0000000   0.0000 282.0000 13.89609395    18
CTC1_L_00176003-01
1 11955U 26751UW  26070.40833333  .00000000  00000+0  00000-0 0  9993
2 11955  70.0000  24.0000 0000000   0.0000  24.0000 13.89609395    16
CTC1_L_00176003-02
1 11956U 24279SF  26070.40833333  .00000000  00000+0  00000-0 0  9997
2 11956  70.0000  24.0000 0000000   0.0000 114.0000 13.89609395    17
CTC1_L_00176003-03
1 11957U 26687OH  26070.40833333  .00000000  00000+0  00000-0 0  9993
2 11957  70.0000  24.0000 0000000   0.0000 204.0000 13.89609395    18
CTC1_L_00176003-04
1 11958U 26495UK  26070.40833333  .00000000  00000+0  00000-0 0  9991
2 11958  70.0000  24.0000 0000000   0.0000 294.0000 13.89609395    18
CTC1_L_00176004-01
1 11959U 26230XA  26070.40833333  .00000000  00000+0  00000-0 0  9999
2 11959  70.0000  36.0000 0000000   0.0000  36.0000 13.89609395    16
CTC1_L_00176004-02
1 11960U 23232ST  26070.40833333  .00000000  00000+0  00000-0 0  9990
2 11960  70.0000  36.0000 0000000   0.0000 126.0000 13.89609395    18
CTC1_L_00176004-03
1 11961U 26285EP  26070.40833333  .00000000  00000+0  00000-0 0  9992
2 11961  70.0000  36.0000 0000000   0.0000 216.0000 13.89609395    19
CTC1_L_00176004-04
1 11962U 23222EH  26070.40833333  .00000000  00000+0  00000-0 0  9991
2 11962  70.0000  36.0000 0000000   0.0000 306.0000 13.89609395    10
CTC1_L_00176005-01
1 11963U 26429ZC  26070.40833333  .00000000  00000+0  00000-0 0  9994
2 11963  70.0000  48.0000 0000000   0.0000  48.0000 13.89609395    17
CTC1_L_00176005-02
1 11964U 22564PZ  26070.40833333  .00000000  00000+0  00000-0 0  9991
2 11964  70.0000  48.0000 0000000   0.0000 138.0000 13.89609395    18
CTC1_L_00176005-03
1 11965U 24162DY  26070.40833333  .00000000  00000+0  00000-0 0  9998
2 11965  70.0000  48.0000 0000000   0.0000 228.0000 13.89609395    19
CTC1_L_00176005-04
1 11966U 25254UP  26070.40833333  .00000000  00000+0  00000-0 0  9992
2 11966  70.0000  48.0000 0000000   0.0000 318.0000 13.89609395    10
CTC1_L_00176006-01
1 11967U 22325SU  26070.40833333  .00000000  00000+0  00000-0 0  9999
2 11967  70.0000  60.0000 0000000   0.0000  60.0000 13.89609395    19
CTC1_L_00176006-02
1 11968U 22423JG  26070.40833333  .00000000  00000+0  00000-0 0  9999
2 11968  70.0000  60.0000 0000000   0.0000 150.0000 13.89609395    10
CTC1_L_00176006-03
1 11969U 23714HN  26070.40833333  .00000000  00000+0  00000-0 0  9994
2 11969  70.0000  60.0000 0000000   0.0000 240.0000 13.89609395    11
CTC1_L_00176006-04
1 11970U 24340GD  26070.40833333  .00000000  00000+0  00000-0 0  9992
2 11970  70.0000  60.0000 0000000   0.0000 330.0000 13.89609395    13
CTC1_L_00176007-01
1 11971U 22418ZV  26070.40833333  .00000000  00000+0  00000-0 0  9997
2 11971  70.0000  72.0000 0000000   0.0000  72.0000 13.89609395    10
CTC1_L_00176007-02
1 11972U 22386DO  26070.40833333  .00000000  00000+0  00000-0 0  9992
2 11972  70.0000  72.0000 0000000   0.0000 162.0000 13.89609395    11
CTC1_L_00176007-03
1 11973U 23876BQ  26070.40833333  .00000000  00000+0  00000-0 0  9998
2 11973  70.0000  72.0000 0000000   0.0000 252.0000 13.89609395    12
CTC1_L_00176007-04
1 11974U 23251NI  26070.40833333  .00000000  00000+0  00000-0 0  9996
2 11974  70.0000  72.0000 0000000   0.0000 342.0000 13.89609395    13
CTC1_L_00176008-01
1 11975U 25244EY  26070.40833333  .00000000  00000+0  00000-0 0  9991
2 11975  70.0000  84.0000 0000000   0.0000  84.0000 13.89609395    10
CTC1_L_00176008-02
1 11976U 22589ZD  26070.40833333  .00000000  00000+0  00000-0 0  9991
2 11976  70.0000  84.0000 0000000   0.0000 174.0000 13.89609395    11
CTC1_L_00176008-03
1 11977U 25924JM  26070.40833333  .00000000  00000+0  00000-0 0  9998
2 11977  70.0000  84.0000 0000000   0.0000 264.0000 13.89609395    12
CTC1_L_00176008-04
1 11978U 25652XJ  26070.40833333  .00000000  00000+0  00000-0 0  9997
2 11978  70.0000  84.0000 0000000   0.0000 354.0000 13.89609395    13
CTC1_L_00176009-01
1 11979U 24030ZY  26070.40833333  .00000000  00000+0  00000-0 0  9997
2 11979  70.0000  96.0000 0000000   0.0000  96.0000 13.89609395    10
CTC1_L_00176009-02
1 11980U 22773CH  26070.40833333  .00000000  00000+0  00000-0 0  9991
2 11980  70.0000  96.0000 0000000   0.0000 186.0000 13.89609395    12
CTC1_L_00176009-03
1 11981U 22688HJ  26070.40833333  .00000000  00000+0  00000-0 0  9997
2 11981  70.0000  96.0000 0000000   0.0000 276.0000 13.89609395    13
CTC1_L_00176009-04
1 11982U 25574IB  26070.40833333  .00000000  00000+0  00000-0 0  9995
2 11982  70.0000  96.0000 0000000   0.0000   6.0000 13.89609395    15
CTC1_L_00176010-01
1 11983U 23498NF  26070.40833333  .00000000  00000+0  00000-0 0  9999
2 11983  70.0000 108.0000 0000000   0.0000 108.0000 13.89609395    13
CTC1_L_00176010-02
1 11984U 22720QF  26070.40833333  .00000000  00000+0  00000-0 0  9997
2 11984  70.0000 108.0000 0000000   0.0000 198.0000 13.89609395    13
CTC1_L_00176010-03
1 11985U 24162RG  26070.40833333  .00000000  00000+0  00000-0 0  9990
2 11985  70.0000 108.0000 0000000   0.0000 288.0000 13.89609395    14
CTC1_L_00176010-04
1 11986U 23847QD  26070.40833333  .00000000  00000+0  00000-0 0  9990
2 11986  70.0000 108.0000 0000000   0.0000  18.0000 13.89609395    16
CTC1_L_00176011-01
1 11987U 24315LW  26070.40833333  .00000000  00000+0  00000-0 0  9992
2 11987  70.0000 120.0000 0000000   0.0000 120.0000 13.89609395    15
CTC1_L_00176011-02
1 11988U 23032SA  26070.40833333  .00000000  00000+0  00000-0 0  9998
2 11988  70.0000 120.0000 0000000   0.0000 210.0000 13.89609395    16
CTC1_L_00176011-03
1 11989U 25438GM  26070.40833333  .00000000  00000+0  00000-0 0  9991
2 11989  70.0000 120.0000 0000000   0.0000 300.0000 13.89609395    17
CTC1_L_00176011-04
1 11990U 24910JI  26070.40833333  .00000000  00000+0  00000-0 0  9997
2 11990  70.0000 120.0000 0000000   0.0000  30.0000 13.89609395    19
CTC1_L_00176012-01
1 11991U 22149NR  26070.40833333  .00000000  00000+0  00000-0 0  9990
2 11991  70.0000 132.0000 0000000   0.0000 132.0000 13.89609395    16
CTC1_L_00176012-02
1 11992U 26698RA  26070.40833333  .00000000  00000+0  00000-0 0  9994
2 11992  70.0000 132.0000 0000000   0.0000 222.0000 13.89609395    17
CTC1_L_00176012-03
1 11993U 23366ZJ  26070.40833333  .00000000  00000+0  00000-0 0  9994
2 11993  70.0000 132.0000 0000000   0.0000 312.0000 13.89609395    18
CTC1_L_00176012-04
1 11994U 26941PO  26070.40833333  .00000000  00000+0  00000-0 0  9997
2 11994  70.0000 132.0000 0000000   0.0000  42.0000 13.89609395    19
CTC1_L_00176013-01
1 11995U 25839PD  26070.40833333  .00000000  00000+0  00000-0 0  9993
2 11995  70.0000 144.0000 0000000   0.0000 144.0000 13.89609395    16
CTC1_L_00176013-02
1 11996U 24586FZ  26070.40833333  .00000000  00000+0  00000-0 0  9992
2 11996  70.0000 144.0000 0000000   0.0000 234.0000 13.89609395    17
CTC1_L_00176013-03
1 11997U 24842NM  26070.40833333  .00000000  00000+0  00000-0 0  9998
2 11997  70.0000 144.0000 0000000   0.0000 324.0000 13.89609395    18
CTC1_L_00176013-04
1 11998U 23405ZE  26070.40833333  .00000000  00000+0  00000-0 0  9993
2 11998  70.0000 144.0000 0000000   0.0000  54.0000 13.89609395    19
CTC1_L_00176014-01
1 11999U 26223MS  26070.40833333  .00000000  00000+0  00000-0 0  9995
2 11999  70.0000 156.0000 0000000   0.0000 156.0000 13.89609395    16
CTC1_L_00176014-02
1 12000U 24203YT  26070.40833333  .00000000  00000+0  00000-0 0  9995
2 12000  70.0000 156.0000 0000000   0.0000 246.0000 13.89609395    10
CTC1_L_00176014-03
1 12001U 24744BA  26070.40833333  .00000000  00000+0  00000-0 0  9996
2 12001  70.0000 156.0000 0000000   0.0000 336.0000 13.89609395    11
CTC1_L_00176014-04
1 12002U 22175BM  26070.40833333  .00000000  00000+0  00000-0 0  9993
2 12002  70.0000 156.0000 0000000   0.0000  66.0000 13.89609395    12
CTC1_L_00176015-01
1 12003U 24871SF  26070.40833333  .00000000  00000+0  00000-0 0  9999
2 12003  70.0000 168.0000 0000000   0.0000 168.0000 13.89609395    19
CTC1_L_00176015-02
1 12004U 22060TI  26070.40833333  .00000000  00000+0  00000-0 0  9998
2 12004  70.0000 168.0000 0000000   0.0000 258.0000 13.89609395    10
CTC1_L_00176015-03
1 12005U 25715S   26070.40833333  .00000000  00000+0  00000-0 0  9999
2 12005  70.0000 168.0000 0000000   0.0000 348.0000 13.89609395    11
CTC1_L_00176015-04
1 12006U 26182QA  26070.40833333  .00000000  00000+0  00000-0 0  9999
2 12006  70.0000 168.0000 0000000   0.0000  78.0000 13.89609395    12
CTC1_L_00176016-01
1 12007U 25391UC  26070.40833333  .00000000  00000+0  00000-0 0  9991
2 12007  70.0000 180.0000 0000000   0.0000 180.0000 13.89609395    11
CTC1_L_00176016-02
1 12008U 24706JC  26070.40833333  .00000000  00000+0  00000-0 0  9991
2 12008  70.0000 180.0000 0000000   0.0000 270.0000 13.89609395    12
